[{"OBJECT_NAME":"IRIDIUM 161","OBJECT_ID":"2018-047C","EPOCH":"2026-03-09T16:18:06.514848","MEAN_MOTION":14.43273444,"ECCENTRICITY":0.00024982,"INCLINATION":86.4503,"RA_OF_ASC_NODE":130.0875,"ARG_OF_PERICENTER":89.1489,"MEAN_ANOMALY":270.9998,"EPHEMERIS_TYPE":0,"CLASSIFICATION_TYPE":"U","NORAD_CAT_ID":43478,"ELEMENT_SET_NO":999,"REV_AT_EPOCH":41078,"BSTAR":3.7950736e-5,"MEAN_MOTION_DOT":1.48e-6,"MEAN_MOTION_DDOT":0},{"OBJECT_NAME":"COSMOS 2251 DEB","OBJECT_ID":"1993-036AAF","EPOCH":"2026-03-08T18:29:08.322144","MEAN_MOTION":14.3845024,"ECCENTRICITY":0.00376852,"INCLINATION":74.0287,"RA_OF_ASC_NODE":204.195,"ARG_OF_PERICENTER":222.1889,"MEAN_ANOMALY":137.6364,"EPHEMERIS_TYPE":0,"CLASSIFICATION_TYPE":"U","NORAD_CAT_ID":34761,"ELEMENT_SET_NO":999,"REV_AT_EPOCH":88886,"BSTAR":0.0010115767,"MEAN_MOTION_DOT":3.088e-5,"MEAN_MOTION_DDOT":0}]
